ONEWEB-0211             
1 48767U 21045A   26186.20765622 -.00000020  00000+0 -86307-4 0  9998
2 48767  87.8999 255.4882 0002486 113.0331 247.1062 13.16197414246810
ONEWEB-0223             
1 48768U 21045B   26186.21885313 -.00000050  00000+0 -16643-3 0  9998
2 48768  87.9001 255.5993 0002120 110.5040 249.6318 13.15548035246778
ONEWEB-0230             
1 48769U 21045C   26186.19033548  .00000160  00000+0  39148-3 0  9996
2 48769  87.8992 255.6169 0001934  94.9322 265.2029 13.15548212247033
ONEWEB-0237             
1 48770U 21045D   26186.25529653  .00000238  00000+0  59899-3 0  9993
2 48770  87.8991 255.6057 0002371 101.2715 258.8682 13.15548387246769
ONEWEB-0235             
1 48771U 21045E   26186.22994179 -.00000067  00000+0 -21097-3 0  9991
2 48771  87.9001 255.5982 0002030 111.2345 248.9002 13.15549571246752
ONEWEB-0242             
1 48772U 21045F   26186.22360898  .00000003  00000+0 -26596-4 0  9996
2 48772  87.9004 255.5967 0001874 102.8136 257.3204 13.15548179246793
ONEWEB-0243             
1 48774U 21045H   26186.24262751  .00000055  00000+0  11253-3 0  9998
2 48774  87.8989 255.6215 0001607 110.2646 249.8657 13.15550122246739
ONEWEB-0222             
1 48775U 21045J   26186.22596982 -.00000304  00000+0 -84245-3 0  9993
2 48775  87.9001 255.5939 0002131 105.9723 254.1642 13.15547724246779
ONEWEB-0244             
1 48776U 21045K   26186.25213238 -.00000067  00000+0 -21115-3 0  9990
2 48776  87.9005 255.5844 0001959 103.0997 257.0352 13.15546318247340
ONEWEB-0247             
1 48777U 21045L   26186.24896363  .00000172  00000+0  42325-3 0  9997
2 48777  87.8990 255.6147 0001731 122.8756 237.2541 13.15548692246784
ONEWEB-0245             
1 48778U 21045M   26186.24420357  .00000021  00000+0  20896-4 0  9997
2 48778  87.9000 255.5964 0002150 103.3824 256.7546 13.15548728246758
ONEWEB-0229             
1 48779U 21045N   26186.23944971  .00000036  00000+0  60921-4 0  9999
2 48779  87.8999 255.5951 0001923 101.2339 258.9008 13.15547565246784
ONEWEB-0228             
1 48780U 21045P   26186.57709617  .00000082  00000+0  18295-3 0  9991
2 48780  87.9008 255.5215 0002011 101.2785 258.8571 13.15549052246748
ONEWEB-0232             
1 48781U 21045Q   26186.17132036  .00000151  00000+0  36583-3 0  9990
2 48781  87.9002 255.6031 0002135 100.1994 259.9378 13.15547721247016
ONEWEB-0231             
1 48782U 21045R   26186.22518584 -.00000128  00000+0 -37422-3 0  9992
2 48782  87.8999 255.6043 0002073 106.0484 254.0875 13.15547395246715
ONEWEB-0234             
1 48783U 21045S   26186.26308124  .00000124  00000+0  29537-3 0  9996
2 48783  87.9001 255.5788 0002841  94.4007 265.7448 13.15547207246852
ONEWEB-0238             
1 48784U 21045T   26186.26334684  .00000085  00000+0  19155-3 0  9998
2 48784  87.9006 255.5742 0002435  96.1379 264.0029 13.15548221246751
ONEWEB-0240             
1 48785U 21045U   26186.20855346 -.00000048  00000+0 -16224-3 0  9991
2 48785  87.9005 255.5947 0002213 106.8825 253.2549 13.15548943246777
ONEWEB-0246             
1 48786U 21045V   26186.20300414  .00000016  00000+0  96145-5 0  9998
2 48786  87.9005 255.6000 0001934 100.6421 259.4927 13.15547685246648
ONEWEB-0210             
1 48787U 21045W   26186.25371150  .00000084  00000+0  18815-3 0  9990
2 48787  87.9004 255.5872 0001404 119.9373 240.1897 13.15547721246694
ONEWEB-0214             
1 48788U 21045X   26186.26240966  .00000147  00000+0  35534-3 0  9999
2 48788  87.9002 255.5823 0001678  96.9604 263.1717 13.15550444246662
ONEWEB-0221             
1 48789U 21045Y   26186.19350471  .00000132  00000+0  31760-3 0  9996
2 48789  87.9004 255.6046 0002035 104.8237 255.3118 13.15547963246741
ONEWEB-0213             
1 48790U 21045Z   26186.18241327  .00000172  00000+0  42323-3 0  9997
2 48790  87.9002 255.6100 0001907 107.2512 252.8827 13.15548244246801
ONEWEB-0212             
1 48791U 21045AA  26186.23547178 -.00000019  00000+0 -85213-4 0  9995
2 48791  87.9000 255.5936 0002065  99.0079 261.1285 13.15546521246805
ONEWEB-0227             
1 48792U 21045AB  26186.23469604  .00000001  00000+0 -30899-4 0  9993
2 48792  87.8999 255.5942 0002051 101.8321 258.3039 13.15547384246753
ONEWEB-0226             
1 48793U 21045AC  26186.22835421 -.00000099  00000+0 -29590-3 0  9990
2 48793  87.9000 255.6000 0001844 105.0486 255.0848 13.15547244246725
ONEWEB-0224             
1 48794U 21045AD  26186.19192267  .00000112  00000+0  26368-3 0  9995
2 48794  87.8993 255.6406 0002870 107.5441 252.6004 13.15548197246640
ONEWEB-0233             
1 48795U 21045AE  26186.27259650  .00000408  00000+0  10485-2 0  9995
2 48795  87.8996 255.6318 0002034 109.1785 250.9566 13.15547827246673
ONEWEB-0190             
1 48796U 21045AF  26186.26005380  .00000196  00000+0  48662-3 0  9997
2 48796  87.8997 255.5969 0001939 119.3532 240.7792 13.15548453246744
