OBJECT_NAME,OBJECT_ID,EPOCH,MEAN_MOTION,ECCENTRICITY,INCLINATION,RA_OF_ASC_NODE,ARG_OF_PERICENTER,MEAN_ANOMALY,EPHEMERIS_TYPE,CLASSIFICATION_TYPE,NORAD_CAT_ID,ELEMENT_SET_NO,REV_AT_EPOCH,BSTAR,MEAN_MOTION_DOT,MEAN_MOTION_DDOT
ONEWEB-0211,2021-045A,2026-07-05T04:59:01.497408,13.16197414,.0002487,87.8999,255.4882,113.0331,247.1062,0,U,48767,999,24681,-.86307E-4,-.2E-6,0
ONEWEB-0223,2021-045B,2026-07-05T05:15:08.909568,13.15548035,.000212,87.9001,255.5993,110.5040,249.6318,0,U,48768,999,24677,-.16643E-3,-.5E-6,0
ONEWEB-0230,2021-045C,2026-07-05T04:34:04.984608,13.15548212,.0001934,87.8992,255.6169,94.9322,265.2029,0,U,48769,999,24703,.39148E-3,.16E-5,0
ONEWEB-0237,2021-045D,2026-07-05T06:07:37.620192,13.15548387,.0002371,87.8991,255.6057,101.2715,258.8682,0,U,48770,999,24676,.59899E-3,.238E-5,0
ONEWEB-0235,2021-045E,2026-07-05T05:31:06.969792,13.15549571,.0002031,87.9001,255.5982,111.2345,248.9002,0,U,48771,999,24675,-.21097E-3,-.67E-6,0
ONEWEB-0242,2021-045F,2026-07-05T05:21:59.815008,13.15548179,.0001874,87.9004,255.5967,102.8136,257.3204,0,U,48772,999,24679,-.26596E-4,.3E-7,0
ONEWEB-0243,2021-045H,2026-07-05T05:49:23.016000,13.15550122,.0001607,87.8989,255.6215,110.2646,249.8657,0,U,48774,999,24673,.11253E-3,.55E-6,0
ONEWEB-0222,2021-045J,2026-07-05T05:25:23.792448,13.15547724,.00021314,87.9001,255.5939,105.9723,254.1642,0,U,48775,999,24677,-.84244998E-3,-.304E-5,0
ONEWEB-0244,2021-045K,2026-07-05T06:03:04.237632,13.15546318,.00019599,87.9005,255.5844,103.0997,257.0352,0,U,48776,999,24734,-.21115481E-3,-.67E-6,0
ONEWEB-0247,2021-045L,2026-07-05T05:58:30.457632,13.15548692,.00017319,87.8990,255.6147,122.8756,237.2541,0,U,48777,999,24678,.42324745E-3,.172E-5,0
ONEWEB-0245,2021-045M,2026-07-05T05:51:39.188448,13.15548728,.00021503,87.9000,255.5964,103.3824,256.7546,0,U,48778,999,24675,.20895921E-4,.21E-6,0
ONEWEB-0229,2021-045N,2026-07-05T05:44:48.454944,13.15547565,.00019237,87.8999,255.5951,101.2339,258.9008,0,U,48779,999,24678,.60921247E-4,.36E-6,0
ONEWEB-0228,2021-045P,2026-07-05T13:51:01.109088,13.15549052,.00020116,87.9008,255.5215,101.2785,258.8571,0,U,48780,999,24674,.18295151E-3,.82E-6,0
ONEWEB-0232,2021-045Q,2026-07-05T04:06:42.079104,13.15547721,.0002136,87.9002,255.6031,100.1994,259.9378,0,U,48781,999,24701,.36583E-3,.151E-5,0
ONEWEB-0231,2021-045R,2026-07-05T05:24:16.056576,13.15547395,.00020737,87.8999,255.6043,106.0484,254.0875,0,U,48782,999,24671,-.3742226E-3,-.128E-5,0
ONEWEB-0234,2021-045S,2026-07-05T06:18:50.219136,13.15547207,.00028419,87.9001,255.5788,94.4007,265.7448,0,U,48783,999,24685,.29536745E-3,.124E-5,0
ONEWEB-0238,2021-045T,2026-07-05T06:19:13.166976,13.15548221,.0002435,87.9006,255.5742,96.1379,264.0029,0,U,48784,999,24675,.19154911E-3,.85E-6,0
ONEWEB-0240,2021-045U,2026-07-05T05:00:19.018944,13.15548943,.00022137,87.9005,255.5947,106.8825,253.2549,0,U,48785,999,24677,-.16223935E-3,-.48E-6,0
ONEWEB-0246,2021-045V,2026-07-05T04:52:19.557696,13.15547685,.00019343,87.9005,255.6000,100.6421,259.4927,0,U,48786,999,24664,.9614477E-5,.16E-6,0
ONEWEB-0210,2021-045W,2026-07-05T06:05:20.673600,13.15547721,.0001404,87.9004,255.5872,119.9373,240.1897,0,U,48787,999,24669,.18815144E-3,.84E-6,0
ONEWEB-0214,2021-045X,2026-07-05T06:17:52.194624,13.15550444,.00016785,87.9002,255.5823,96.9604,263.1717,0,U,48788,999,24666,.35533502E-3,.147E-5,0
ONEWEB-0221,2021-045Y,2026-07-05T04:38:38.806944,13.15547963,.00020352,87.9004,255.6046,104.8237,255.3118,0,U,48789,999,24674,.31760314E-3,.132E-5,0
ONEWEB-0213,2021-045Z,2026-07-05T04:22:40.506528,13.15548244,.00019075,87.9002,255.6100,107.2512,252.8827,0,U,48790,999,24680,.42322805E-3,.172E-5,0
ONEWEB-0212,2021-045AA,2026-07-05T05:39:04.761792,13.15546521,.0002065,87.9000,255.5936,99.0079,261.1285,0,U,48791,999,24680,-.85213359E-4,-.19E-6,0
ONEWEB-0227,2021-045AB,2026-07-05T05:37:57.737856,13.15547384,.0002051,87.8999,255.5942,101.8321,258.3039,0,U,48792,999,24675,-.30898949E-4,.1E-7,0
ONEWEB-0226,2021-045AC,2026-07-05T05:28:49.803744,13.15547244,.00018444,87.9000,255.6000,105.0486,255.0848,0,U,48793,999,24672,-.29589882E-3,-.99E-6,0
ONEWEB-0224,2021-045AD,2026-07-05T04:36:22.118688,13.15548197,.00028706,87.8993,255.6406,107.5441,252.6004,0,U,48794,999,24664,.26367736E-3,.112E-5,0
ONEWEB-0233,2021-045AE,2026-07-05T06:32:32.337600,13.15547827,.00020342,87.8996,255.6318,109.1785,250.9566,0,U,48795,999,24667,.10484606E-2,.408E-5,0
ONEWEB-0190,2021-045AF,2026-07-05T06:14:28.648320,13.15548453,.00019395,87.8997,255.5969,119.3532,240.7792,0,U,48796,999,24674,.4866174E-3,.196E-5,0
